[
	{
		"address": "1 Main St",
		"city": "New York City",
		"state": "NY",
		"zip": 10001,
		"fire": 9.5,
		"earthquake": 7.0,
		"flood": 7.5,
		"hail": 8.0,
		"windstorm": 7.0,
		"risk": "low",
		"locationId": 111,
		"buildingId": 111
	},
	{
		"address": "15 Main St",
		"city": "New York City",
		"state": "NY",
		"zip": 10002,
		"fire": 9.5,
		"earthquake": 8.5,
		"flood": 9.0,
		"hail": 9.5,
		"windstorm": 8.5,
		"risk": "low",
		"locationId": 111,
		"buildingId": 222
	},
	{
		"address": "10 2nd Ave",
		"city": "New York City",
		"state": "NY",
		"zip": 10001,
		"fire": 2.0,
		"earthquake": 7.0,
		"flood": 7.5,
		"hail": 8.0,
		"windstorm": 7.0,
		"risk": "medium",
		"locationId": 111,
		"buildingId": 333
	},
	{
		"address": "27 3rd Ave",
		"city": "New York City",
		"state": "NY",
		"zip": 10010,
		"fire": 8.0,
		"earthquake": 8.0,
		"flood": 8.5,
		"hail": 9.0,
		"windstorm": 8.0,
		"risk": "low",
		"locationId": 111,
		"buildingId": 444
	},
	{
		"address": "54 Washington St",
		"city": "New York City",
		"state": "NY",
		"zip": 10011,
		"fire": 7.5,
		"earthquake": 8.0,
		"flood": 8.5,
		"hail": 9.0,
		"windstorm": 8.0,
		"risk": "low",
		"locationId": 111,
		"buildingId": 555
	},
	{
		"address": "32 Kennedy St",
		"city": "New York City",
		"state": "NY",
		"zip": 10021,
		"fire": 9.0,
		"earthquake": 6.0,
		"flood": 6.5,
		"hail": 7.0,
		"windstorm": 6.0,
		"risk": "medium",
		"locationId": 111,
		"buildingId": 666
	},
	{
		"address": "41 Johnson St",
		"city": "New York City",
		"state": "NY",
		"zip": 10022,
		"fire": 3.5,
		"earthquake": 6.0,
		"flood": 6.5,
		"hail": 7.0,
		"windstorm": 6.0,
		"risk": "medium",
		"locationId": 111,
		"buildingId": 777
	},
	{
		"address": "22 3rd Ave",
		"city": "New York City",
		"state": "NY",
		"zip": 10023,
		"fire": 7.0,
		"earthquake": 6.0,
		"flood": 6.5,
		"hail": 7.0,
		"windstorm": 6.0,
		"risk": "medium",
		"locationId": 111,
		"buildingId": 888
	},
	{
		"address": "23 Sentry St",
		"city": "New York City",
		"state": "NY",
		"zip": 10001,
		"fire": 4.0,
		"earthquake": 7.0,
		"flood": 7.5,
		"hail": 8.0,
		"windstorm": 7.0,
		"risk": "medium",
		"locationId": 111,
		"buildingId": 999
	}
]