[
	{
		"address": "420 BUCKLAND HILLS DR",
		"city": "Manchester",
		"state": "CT",
		"zip": "06040",
		"fire": 3.47,
		"earthquake": 4.31,
		"flood": 4.95,
		"hail": 5.16,
		"windstorm": 2.38,
		"risk": "low",
		"locationId": 197,
		"buildingId": 140
	},
	{
		"address": "625 SCHOOL STREET",
		"city": "Putnam",
		"state": "CT",
		"zip": "06260",
		"fire": 7.79,
		"earthquake": 4.64,
		"flood": 4.05,
		"hail": 2.47,
		"windstorm": 8.3,
		"risk": "low",
		"locationId": 204,
		"buildingId": 143
	},
	{
		"address": "474 BOSTON POST ROAD",
		"city": "North Windham",
		"state": "CT",
		"zip": "06256",
		"fire": 8.44,
		"earthquake": 6.77,
		"flood": 3.63,
		"hail": 3.31,
		"windstorm": 3.25,
		"risk": "low",
		"locationId": 214,
		"buildingId": 145
	},
	{
		"address": "970 TORRINGFORD STREET",
		"city": "Torrington",
		"state": "CT",
		"zip": "06790",
		"fire": 5.95,
		"earthquake": 2.7,
		"flood": 2.7,
		"hail": 3.32,
		"windstorm": 6.91,
		"risk": "low",
		"locationId": 222,
		"buildingId": 148
	},
	{
		"address": "465 BRIDGEPORT AVENUE",
		"city": "Shelton",
		"state": "CT",
		"zip": "06484",
		"fire": 6.1,
		"earthquake": 6.6,
		"flood": 4.19,
		"hail": 4.16,
		"windstorm": 2.89,
		"risk": "low",
		"locationId": 232,
		"buildingId": 150
	},
	{
		"address": "220 SALEM TURNPIKE",
		"city": "Norwich",
		"state": "CT",
		"zip": "06360",
		"fire": 7.34,
		"earthquake": 2.56,
		"flood": 6.34,
		"hail": 3.23,
		"windstorm": 2.52,
		"risk": "low",
		"locationId": 240,
		"buildingId": 151
	},
	{
		"address": "150 GOLD STAR HWY",
		"city": "Groton",
		"state": "CT",
		"zip": "06340",
		"fire": 3.52,
		"earthquake": 3.86,
		"flood": 1.45,
		"hail": 2.44,
		"windstorm": 3.08,
		"risk": "low",
		"locationId": 244,
		"buildingId": 152
	},
	{
		"address": "120 COMMERCIAL PARKWAY",
		"city": "Branford",
		"state": "CT",
		"zip": "06405",
		"fire": 5.42,
		"earthquake": 1.54,
		"flood": 4.5,
		"hail": 4.37,
		"windstorm": 7.62,
		"risk": "low",
		"locationId": 254,
		"buildingId": 154
	},
	{
		"address": "69 PROSPECT HILL ROAD",
		"city": "East Windsor",
		"state": "CT",
		"zip": "06088",
		"fire": 2,
		"earthquake": 7.25,
		"flood": 2.2,
		"hail": 6.07,
		"windstorm": 7.95,
		"risk": "medium",
		"locationId": 263,
		"buildingId": 157
	},
	{
		"address": "1100 NEW HAVEN ROAD",
		"city": "Naugatuck",
		"state": "CT",
		"zip": "06770",
		"fire": 6.76,
		"earthquake": 6.97,
		"flood": 3.11,
		"hail": 1.4,
		"windstorm": 4.88,
		"risk": "low",
		"locationId": 271,
		"buildingId": 159
	}
]